{"type": "FeatureCollection", "features": [ {"type": "Feature", "properties": {"norad_id": 30295, "name": "FENGYUN 1C DEB", "group": "fengyun-1c-debris", "lat": 14.389877865833382, "lon": -153.83817524700197, "alt_km": 849.4518772761212, "timestamp": "2025-12-27T23:26:37.638020+00:00", "meta": {"OBJECT_NAME": "FENGYUN 1C DEB", "OBJECT_ID": "1999-025ZG", "EPOCH": "2025-12-26T18:18:17.510688", "MEAN_MOTION": 14.25055296, "ECCENTRICITY": 0.00941017, "INCLINATION": 98.5073, "RA_OF_ASC_NODE": 22.7839, "ARG_OF_PERICENTER": 41.9117, "MEAN_ANOMALY": 17.4173, "EPHEMERIS_TYPE": 0, "CLASSIFICATION_TYPE": "U", "NORAD_CAT_ID": 30295, "ELEMENT_SET_NO": 999, "REV_AT_EPOCH": 98376, "BSTAR": 0.00016897847, "MEAN_MOTION_DOT": 3.73e-06, "MEAN_MOTION_DDOT": 0}, "tle": {"line1": "1 30295U 99025ZG  25360.76270267  .00000373  00000+0  16898-3 0  9994", "line2": "2 30295  98.5073  22.7839 0094101  41.9117  17.4173 14.25055296983767"}}, "geometry": {"type": "Point", "coordinates": [-153.83817524700197, 14.389877865833382]}}, {"type": "Feature", "properties": {"norad_id": 30297, "name": "FENGYUN 1C DEB", "group": "fengyun-1c-debris", "lat": -69.07601336942413, "lon": -22.50539928550535, "alt_km": 1038.9231265658345, "timestamp": "2025-12-27T23:26:37.638030+00:00", "meta": {"OBJECT_NAME": "FENGYUN 1C DEB", "OBJECT_ID": "1999-025ZJ", "EPOCH": "2025-12-27T03:35:01.298976", "MEAN_MOTION": 14.21980314, "ECCENTRICITY": 0.03795209, "INCLINATION": 98.8138, "RA_OF_ASC_NODE": 312.7244, "ARG_OF_PERICENTER": 74.087, "MEAN_ANOMALY": 303.9733, "EPHEMERIS_TYPE": 0, "CLASSIFICATION_TYPE": "U", "NORAD_CAT_ID": 30297, "ELEMENT_SET_NO": 999, "REV_AT_EPOCH": 95357, "BSTAR": 0.0021904398, "MEAN_MOTION_DOT": 0.00010114, "MEAN_MOTION_DDOT": 0}, "tle": {"line1": "1 30297U 99025ZJ  25361.14932059  .00010114  00000+0  21904-2 0  9990", "line2": "2 30297  98.8138 312.7244 0379520  74.0870 303.9733 14.21980314953575"}}, "geometry": {"type": "Point", "coordinates": [-22.50539928550535, -69.07601336942413]}}, {"type": "Feature", "properties": {"norad_id": 30298, "name": "FENGYUN 1C DEB", "group": "fengyun-1c-debris", "lat": -70.32742085934211, "lon": -113.14181839699312, "alt_km": 865.4856421741442, "timestamp": "2025-12-27T23:26:37.638041+00:00", "meta": {"OBJECT_NAME": "FENGYUN 1C DEB", "OBJECT_ID": "1999-025ZK", "EPOCH": "2025-12-27T05:29:29.411232", "MEAN_MOTION": 14.20046071, "ECCENTRICITY": 0.0047068, "INCLINATION": 99.0004, "RA_OF_ASC_NODE": 92.4136, "ARG_OF_PERICENTER": 87.3107, "MEAN_ANOMALY": 303.135, "EPHEMERIS_TYPE": 0, "CLASSIFICATION_TYPE": "U", "NORAD_CAT_ID": 30298, "ELEMENT_SET_NO": 999, "REV_AT_EPOCH": 97040, "BSTAR": 0.0018481, "MEAN_MOTION_DOT": 3.934e-05, "MEAN_MOTION_DDOT": 0}, "tle": {"line1": "1 30298U 99025ZK  25361.22881263  .00003934  00000+0  18481-2 0  9998", "line2": "2 30298  99.0004  92.4136 0047068  87.3107 303.1350 14.20046071970402"}}, "geometry": {"type": "Point", "coordinates": [-113.14181839699312, -70.32742085934211]}}, {"type": "Feature", "properties": {"norad_id": 30299, "name": "FENGYUN 1C DEB", "group": "fengyun-1c-debris", "lat": 16.996800279110584, "lon": -102.88043402074561, "alt_km": 938.3863463260368, "timestamp": "2025-12-27T23:26:37.638051+00:00", "meta": {"OBJECT_NAME": "FENGYUN 1C DEB", "OBJECT_ID": "1999-025ZL", "EPOCH": "2025-12-27T04:02:15.839232", "MEAN_MOTION": 14.07818076, "ECCENTRICITY": 0.01032943, "INCLINATION": 99.0927, "RA_OF_ASC_NODE": 73.4997, "ARG_OF_PERICENTER": 326.9378, "MEAN_ANOMALY": 60.324, "EPHEMERIS_TYPE": 0, "CLASSIFICATION_TYPE": "U", "NORAD_CAT_ID": 30299, "ELEMENT_SET_NO": 999, "REV_AT_EPOCH": 96493, "BSTAR": 0.0015288555, "MEAN_MOTION_DOT": 2.675e-05, "MEAN_MOTION_DDOT": 0}, "tle": {"line1": "1 30299U 99025ZL  25361.16823888  .00002675  00000+0  15289-2 0  9995", "line2": "2 30299  99.0927  73.4997 0103294 326.9378  60.3240 14.07818076964935"}}, "geometry": {"type": "Point", "coordinates": [-102.88043402074561, 16.996800279110584]}}, {"type": "Feature", "properties": {"norad_id": 30300, "name": "FENGYUN 1C DEB", "group": "fengyun-1c-debris", "lat": -54.738488224013444, "lon": 84.82711335316479, "alt_km": 776.3862564142628, "timestamp": "2025-12-27T23:26:37.638061+00:00", "meta": {"OBJECT_NAME": "FENGYUN 1C DEB", "OBJECT_ID": "1999-025ZM", "EPOCH": "2025-12-26T04:12:54.965088", "MEAN_MOTION": 14.26974339, "ECCENTRICITY": 0.0076541, "INCLINATION": 99.0372, "RA_OF_ASC_NODE": 69.9585, "ARG_OF_PERICENTER": 255.2539, "MEAN_ANOMALY": 160.5717, "EPHEMERIS_TYPE": 0, "CLASSIFICATION_TYPE": "U", "NORAD_CAT_ID": 30300, "ELEMENT_SET_NO": 999, "REV_AT_EPOCH": 97176, "BSTAR": 0.0021941283, "MEAN_MOTION_DOT": 5.46e-05, "MEAN_MOTION_DDOT": 0}, "tle": {"line1": "1 30300U 99025ZM  25360.17563617  .00005460  00000+0  21941-2 0  9996", "line2": "2 30300  99.0372  69.9585 0076541 255.2539 160.5717 14.26974339971769"}}, "geometry": {"type": "Point", "coordinates": [84.82711335316479, -54.738488224013444]}}, {"type": "Feature", "properties": {"norad_id": 30301, "name": "FENGYUN 1C DEB", "group": "fengyun-1c-debris", "lat": 73.60183662505655, "lon": 4.642933005605395, "alt_km": 744.4154407543592, "timestamp": "2025-12-27T23:26:37.638070+00:00", "meta": {"OBJECT_NAME": "FENGYUN 1C DEB", "OBJECT_ID": "1999-025ZN", "EPOCH": "2025-12-27T03:23:22.689312", "MEAN_MOTION": 14.53499271, "ECCENTRICITY": 0.00692604, "INCLINATION": 98.6343, "RA_OF_ASC_NODE": 152.6953, "ARG_OF_PERICENTER": 246.3205, "MEAN_ANOMALY": 168.3381, "EPHEMERIS_TYPE": 0, "CLASSIFICATION_TYPE": "U", "NORAD_CAT_ID": 30301, "ELEMENT_SET_NO": 999, "REV_AT_EPOCH": 97426, "BSTAR": 0.0058427311, "MEAN_MOTION_DOT": 0.00025188, "MEAN_MOTION_DDOT": 0}, "tle": {"line1": "1 30301U 99025ZN  25361.14123483  .00025188  00000+0  58427-2 0  9996", "line2": "2 30301  98.6343 152.6953 0069260 246.3205 168.3381 14.53499271974261"}}, "geometry": {"type": "Point", "coordinates": [4.642933005605395, 73.60183662505655]}}, {"type": "Feature", "properties": {"norad_id": 30302, "name": "FENGYUN 1C DEB", "group": "fengyun-1c-debris", "lat": 19.558413650506644, "lon": 92.06501133687952, "alt_km": 843.4217114004186, "timestamp": "2025-12-27T23:26:37.638081+00:00", "meta": {"OBJECT_NAME": "FENGYUN 1C DEB", "OBJECT_ID": "1999-025ZP", "EPOCH": "2025-12-25T23:06:42.620256", "MEAN_MOTION": 14.12906665, "ECCENTRICITY": 0.0105994, "INCLINATION": 98.5535, "RA_OF_ASC_NODE": 267.0758, "ARG_OF_PERICENTER": 79.7679, "MEAN_ANOMALY": 281.5427, "EPHEMERIS_TYPE": 0, "CLASSIFICATION_TYPE": "U", "NORAD_CAT_ID": 30302, "ELEMENT_SET_NO": 999, "REV_AT_EPOCH": 96230, "BSTAR": 0.0022614, "MEAN_MOTION_DOT": 4.402e-05, "MEAN_MOTION_DDOT": 0}, "tle": {"line1": "1 30302U 99025ZP  25359.96299329  .00004402  00000+0  22614-2 0  9992", "line2": "2 30302  98.5535 267.0758 0105994  79.7679 281.5427 14.12906665962302"}}, "geometry": {"type": "Point", "coordinates": [92.06501133687952, 19.558413650506644]}}, {"type": "Feature", "properties": {"norad_id": 30303, "name": "FENGYUN 1C DEB", "group": "fengyun-1c-debris", "lat": 77.89066236034697, "lon": -52.53223779313919, "alt_km": 840.8516240424542, "timestamp": "2025-12-27T23:26:37.638091+00:00", "meta": {"OBJECT_NAME": "FENGYUN 1C DEB", "OBJECT_ID": "1999-025ZQ", "EPOCH": "2025-12-27T04:27:19.692576", "MEAN_MOTION": 14.25995654, "ECCENTRICITY": 0.00777978, "INCLINATION": 99.018, "RA_OF_ASC_NODE": 78.9066, "ARG_OF_PERICENTER": 241.07, "MEAN_ANOMALY": 118.2661, "EPHEMERIS_TYPE": 0, "CLASSIFICATION_TYPE": "U", "NORAD_CAT_ID": 30303, "ELEMENT_SET_NO": 999, "REV_AT_EPOCH": 97241, "BSTAR": 0.0030080155, "MEAN_MOTION_DOT": 7.369e-05, "MEAN_MOTION_DDOT": 0}, "tle": {"line1": "1 30303U 99025ZQ  25361.18564459  .00007369  00000+0  30080-2 0  9990", "line2": "2 30303  99.0180  78.9066 0077797 241.0700 118.2661 14.25995654972413"}}, "geometry": {"type": "Point", "coordinates": [-52.53223779313919, 77.89066236034697]}}, {"type": "Feature", "properties": {"norad_id": 30304, "name": "FENGYUN 1C DEB", "group": "fengyun-1c-debris", "lat": 47.38972844278142, "lon": 64.64927217409402, "alt_km": 797.4089191340463, "timestamp": "2025-12-27T23:26:37.638101+00:00", "meta": {"OBJECT_NAME": "FENGYUN 1C DEB", "OBJECT_ID": "1999-025ZR", "EPOCH": "2025-12-26T11:35:46.900608", "MEAN_MOTION": 14.15562083, "ECCENTRICITY": 0.0073044, "INCLINATION": 99.0318, "RA_OF_ASC_NODE": 73.0934, "ARG_OF_PERICENTER": 9.4189, "MEAN_ANOMALY": 350.8335, "EPHEMERIS_TYPE": 0, "CLASSIFICATION_TYPE": "U", "NORAD_CAT_ID": 30304, "ELEMENT_SET_NO": 999, "REV_AT_EPOCH": 97013, "BSTAR": 0.0013123, "MEAN_MOTION_DOT": 2.589e-05, "MEAN_MOTION_DDOT": 0}, "tle": {"line1": "1 30304U 99025ZR  25360.48318172  .00002589  00000+0  13123-2 0  9990", "line2": "2 30304  99.0318  73.0934 0073044   9.4189 350.8335 14.15562083970139"}}, "geometry": {"type": "Point", "coordinates": [64.64927217409402, 47.38972844278142]}}, {"type": "Feature", "properties": {"norad_id": 30305, "name": "FENGYUN 1C DEB", "group": "fengyun-1c-debris", "lat": -16.85822992478013, "lon": -57.243014772232236, "alt_km": 994.4459292422262, "timestamp": "2025-12-27T23:26:37.638111+00:00", "meta": {"OBJECT_NAME": "FENGYUN 1C DEB", "OBJECT_ID": "1999-025ZS", "EPOCH": "2025-12-27T02:53:33.120672", "MEAN_MOTION": 13.60239056, "ECCENTRICITY": 0.0265862, "INCLINATION": 98.5892, "RA_OF_ASC_NODE": 299.3792, "ARG_OF_PERICENTER": 63.5498, "MEAN_ANOMALY": 51.5263, "EPHEMERIS_TYPE": 0, "CLASSIFICATION_TYPE": "U", "NORAD_CAT_ID": 30305, "ELEMENT_SET_NO": 999, "REV_AT_EPOCH": 93969, "BSTAR": 0.000399563, "MEAN_MOTION_DOT": 3.43e-06, "MEAN_MOTION_DDOT": 0}, "tle": {"line1": "1 30305U 99025ZS  25361.12052223  .00000343  00000+0  39956-3 0  9994", "line2": "2 30305  98.5892 299.3792 0265862  63.5498  51.5263 13.60239056939692"}}, "geometry": {"type": "Point", "coordinates": [-57.243014772232236, -16.85822992478013]}}]}